STARLINK-36094          
1 66851U 25281D   25364.66670139  .00133497  00000+0  22491-2 0  9998
2 66851  43.0006  14.8095 0001539 274.8584  18.5640 15.50499558  4261
STARLINK-35992          
1 66852U 25281E   25364.42062290  .00108619  00000+0  18302-2 0  9990
2 66852  43.0011  16.2453 0001151 328.9819  31.0973 15.50602299  5576
STARLINK-35986          
1 66853U 25281F   25364.35585872  .00130148  00000+0  21870-2 0  9995
2 66853  43.0014  16.6182 0001315 284.2238  75.8476 15.50586459  5566
STARLINK-36087          
1 66854U 25281G   25365.06408037  .00114922  00000+0  19309-2 0  9998
2 66854  42.9977  12.4711 0000767 207.9384 152.1435 15.50655595  5673
STARLINK-36090          
1 66855U 25281H   25364.41959167  .00108536  00000+0  18291-2 0  9995
2 66855  43.0006  16.2358 0000348 291.2482  68.8341 15.50598839  5573
STARLINK-36072          
1 66856U 25281J   25364.41924414  .00113105  00000+0  19044-2 0  9998
2 66856  43.0013  16.2324 0001909 282.7354  77.3293 15.50603183  5572
STARLINK-36083          
1 66857U 25281K   25364.41890155  .00112056  00000+0  18867-2 0  9999
2 66857  43.0023  16.2298 0002135 281.5579  78.5041 15.50606977  5570
STARLINK-35118          
1 66858U 25281L   25364.41855766  .00122797  00000+0  20635-2 0  9998
2 66858  43.0022  16.2247 0002209 278.9026  81.1584 15.50615586  5571
STARLINK-35646          
1 66859U 25281M   25364.41821520  .00110742  00000+0  18649-2 0  9999
2 66859  43.0018  16.2247 0002249 281.8895  78.1713 15.50608178  5577
STARLINK-35987          
1 66860U 25281N   25365.06064986  .00114014  00000+0  19179-2 0  9993
2 66860  42.9966  12.4433 0000383 199.8571 160.2274 15.50624867  5679
STARLINK-35991          
1 66861U 25281P   25364.58335647 -.00096008  00000+0 -16471-2 0  9991
2 66861  43.0005  15.2494 0001190 270.7438 296.0618 15.50642872  4251
STARLINK-35974          
1 66862U 25281Q   25365.06202310  .00127204  00000+0  21303-2 0  9997
2 66862  42.9997  12.4547 0001669 273.9780  86.0889 15.50693245  5678
